CCSDS_OMM_VERS = 2.0
CREATION_DATE  = 
ORIGINATOR     = 

OBJECT_NAME    = SL-3 R/B
OBJECT_ID      = 1982-079B
CENTER_NAME    = EARTH
REF_FRAME      = TEME
TIME_SYSTEM    = UTC
MEAN_ELEMENT_THEORY = SGP/SGP4

EPOCH          = 2025-12-27T04:39:47.392128
MEAN_MOTION    = 15.23759447
ECCENTRICITY   = .00268234
INCLINATION    = 81.1470
RA_OF_ASC_NODE = 278.6219
ARG_OF_PERICENTER = 52.8181
MEAN_ANOMALY   = 307.5495

EPHEMERIS_TYPE = 0
CLASSIFICATION_TYPE = U
NORAD_CAT_ID   = 13403
ELEMENT_SET_NO = 999
REV_AT_EPOCH   = 36665
BSTAR          = .31020091E-3
MEAN_MOTION_DOT = .7561E-4
MEAN_MOTION_DDOT = 0

CCSDS_OMM_VERS = 2.0
CREATION_DATE  = 
ORIGINATOR     = 

OBJECT_NAME    = SL-14 R/B
OBJECT_ID      = 1982-092B
CENTER_NAME    = EARTH
REF_FRAME      = TEME
TIME_SYSTEM    = UTC
MEAN_ELEMENT_THEORY = SGP/SGP4

EPOCH          = 2025-12-27T00:49:58.580256
MEAN_MOTION    = 14.86569342
ECCENTRICITY   = .00203224
INCLINATION    = 82.5671
RA_OF_ASC_NODE = 209.3427
ARG_OF_PERICENTER = 178.0735
MEAN_ANOMALY   = 333.5684

EPHEMERIS_TYPE = 0
CLASSIFICATION_TYPE = U
NORAD_CAT_ID   = 13553
ELEMENT_SET_NO = 999
REV_AT_EPOCH   = 31813
BSTAR          = .60411948E-4
MEAN_MOTION_DOT = .562E-5
MEAN_MOTION_DDOT = 0

CCSDS_OMM_VERS = 2.0
CREATION_DATE  = 
ORIGINATOR     = 

OBJECT_NAME    = SL-3 R/B
OBJECT_ID      = 1983-010B
CENTER_NAME    = EARTH
REF_FRAME      = TEME
TIME_SYSTEM    = UTC
MEAN_ELEMENT_THEORY = SGP/SGP4

EPOCH          = 2025-12-27T07:00:42.066720
MEAN_MOTION    = 15.43860975
ECCENTRICITY   = .00164805
INCLINATION    = 81.1041
RA_OF_ASC_NODE = 90.8511
ARG_OF_PERICENTER = 299.3081
MEAN_ANOMALY   = 60.6515

EPHEMERIS_TYPE = 0
CLASSIFICATION_TYPE = U
NORAD_CAT_ID   = 13819
ELEMENT_SET_NO = 999
REV_AT_EPOCH   = 34676
BSTAR          = .34969985E-3
MEAN_MOTION_DOT = .15981E-3
MEAN_MOTION_DDOT = 0

CCSDS_OMM_VERS = 2.0
CREATION_DATE  = 
ORIGINATOR     = 

OBJECT_NAME    = SL-3 R/B
OBJECT_ID      = 1983-075B
CENTER_NAME    = EARTH
REF_FRAME      = TEME
TIME_SYSTEM    = UTC
MEAN_ELEMENT_THEORY = SGP/SGP4

EPOCH          = 2025-12-27T05:55:53.667552
MEAN_MOTION    = 15.36430773
ECCENTRICITY   = .00241854
INCLINATION    = 97.6115
RA_OF_ASC_NODE = 358.2206
ARG_OF_PERICENTER = 125.5553
MEAN_ANOMALY   = 234.7950

EPHEMERIS_TYPE = 0
CLASSIFICATION_TYPE = U
NORAD_CAT_ID   = 14208
ELEMENT_SET_NO = 999
REV_AT_EPOCH   = 31902
BSTAR          = .3227492E-3
MEAN_MOTION_DOT = .11499E-3
MEAN_MOTION_DDOT = 0

CCSDS_OMM_VERS = 2.0
CREATION_DATE  = 
ORIGINATOR     = 

OBJECT_NAME    = COSMOS 1536
OBJECT_ID      = 1984-013A
CENTER_NAME    = EARTH
REF_FRAME      = TEME
TIME_SYSTEM    = UTC
MEAN_ELEMENT_THEORY = SGP/SGP4

EPOCH          = 2025-12-27T01:37:06.223296
MEAN_MOTION    = 15.22683516
ECCENTRICITY   = .0014677
INCLINATION    = 82.5449
RA_OF_ASC_NODE = 179.9529
ARG_OF_PERICENTER = 173.0639
MEAN_ANOMALY   = 187.0803

EPHEMERIS_TYPE = 0
CLASSIFICATION_TYPE = U
NORAD_CAT_ID   = 14699
ELEMENT_SET_NO = 999
REV_AT_EPOCH   = 26156
BSTAR          = .28847757E-3
MEAN_MOTION_DOT = .677E-4
MEAN_MOTION_DDOT = 0

CCSDS_OMM_VERS = 2.0
CREATION_DATE  = 
ORIGINATOR     = 

OBJECT_NAME    = SL-14 R/B
OBJECT_ID      = 1984-027B
CENTER_NAME    = EARTH
REF_FRAME      = TEME
TIME_SYSTEM    = UTC
MEAN_ELEMENT_THEORY = SGP/SGP4

EPOCH          = 2025-12-27T07:16:52.822560
MEAN_MOTION    = 14.85890146
ECCENTRICITY   = .00170943
INCLINATION    = 82.5423
RA_OF_ASC_NODE = 312.8984
ARG_OF_PERICENTER = 208.8247
MEAN_ANOMALY   = 151.2027

EPHEMERIS_TYPE = 0
CLASSIFICATION_TYPE = U
NORAD_CAT_ID   = 14820
ELEMENT_SET_NO = 999
REV_AT_EPOCH   = 23688
BSTAR          = .70209144E-4
MEAN_MOTION_DOT = .637E-5
MEAN_MOTION_DDOT = 0

CCSDS_OMM_VERS = 2.0
CREATION_DATE  = 
ORIGINATOR     = 

OBJECT_NAME    = SL-8 R/B
OBJECT_ID      = 1985-006B
CENTER_NAME    = EARTH
REF_FRAME      = TEME
TIME_SYSTEM    = UTC
MEAN_ELEMENT_THEORY = SGP/SGP4

EPOCH          = 2025-12-27T07:07:51.804768
MEAN_MOTION    = 14.37730108
ECCENTRICITY   = .00193324
INCLINATION    = 74.0459
RA_OF_ASC_NODE = 34.3512
ARG_OF_PERICENTER = 323.6753
MEAN_ANOMALY   = 113.2984

EPHEMERIS_TYPE = 0
CLASSIFICATION_TYPE = U
NORAD_CAT_ID   = 15483
ELEMENT_SET_NO = 999
REV_AT_EPOCH   = 14362
BSTAR          = .11463384E-3
MEAN_MOTION_DOT = .319E-5
MEAN_MOTION_DDOT = 0

CCSDS_OMM_VERS = 2.0
CREATION_DATE  = 
ORIGINATOR     = 

OBJECT_NAME    = SL-12 R/B(2)
OBJECT_ID      = 1985-042D
CENTER_NAME    = EARTH
REF_FRAME      = TEME
TIME_SYSTEM    = UTC
MEAN_ELEMENT_THEORY = SGP/SGP4

EPOCH          = 2025-12-27T02:44:58.975008
MEAN_MOTION    = 14.21956137
ECCENTRICITY   = .00372244
INCLINATION    = 71.1068
RA_OF_ASC_NODE = 241.0523
ARG_OF_PERICENTER = 240.3907
MEAN_ANOMALY   = 271.9829

EPHEMERIS_TYPE = 0
CLASSIFICATION_TYPE = U
NORAD_CAT_ID   = 15772
ELEMENT_SET_NO = 999
REV_AT_EPOCH   = 10407
BSTAR          = .58756026E-4
MEAN_MOTION_DOT = .83E-6
MEAN_MOTION_DDOT = 0

CCSDS_OMM_VERS = 2.0
CREATION_DATE  = 
ORIGINATOR     = 

OBJECT_NAME    = SL-14 R/B
OBJECT_ID      = 1985-069B
CENTER_NAME    = EARTH
REF_FRAME      = TEME
TIME_SYSTEM    = UTC
MEAN_ELEMENT_THEORY = SGP/SGP4

EPOCH          = 2025-12-26T23:22:00.024960
MEAN_MOTION    = 14.86340746
ECCENTRICITY   = .00202748
INCLINATION    = 82.5272
RA_OF_ASC_NODE = 93.3222
ARG_OF_PERICENTER = 74.7855
MEAN_ANOMALY   = 285.5602

EPHEMERIS_TYPE = 0
CLASSIFICATION_TYPE = U
NORAD_CAT_ID   = 15945
ELEMENT_SET_NO = 999
REV_AT_EPOCH   = 16203
BSTAR          = .67736928E-4
MEAN_MOTION_DOT = .623E-5
MEAN_MOTION_DDOT = 0

CCSDS_OMM_VERS = 2.0
CREATION_DATE  = 
ORIGINATOR     = 

OBJECT_NAME    = SL-16 R/B
OBJECT_ID      = 1985-097B
CENTER_NAME    = EARTH
REF_FRAME      = TEME
TIME_SYSTEM    = UTC
MEAN_ELEMENT_THEORY = SGP/SGP4

EPOCH          = 2025-12-27T06:20:44.129760
MEAN_MOTION    = 14.16586886
ECCENTRICITY   = .00076148
INCLINATION    = 71.0034
RA_OF_ASC_NODE = 293.0248
ARG_OF_PERICENTER = 348.4462
MEAN_ANOMALY   = 119.3933

EPHEMERIS_TYPE = 0
CLASSIFICATION_TYPE = U
NORAD_CAT_ID   = 16182
ELEMENT_SET_NO = 999
REV_AT_EPOCH   = 7697
BSTAR          = -.74148172E-4
MEAN_MOTION_DOT = -.196E-5
MEAN_MOTION_DDOT = 0

CCSDS_OMM_VERS = 2.0
CREATION_DATE  = 
ORIGINATOR     = 

OBJECT_NAME    = SL-14 R/B
OBJECT_ID      = 1986-006B
CENTER_NAME    = EARTH
REF_FRAME      = TEME
TIME_SYSTEM    = UTC
MEAN_ELEMENT_THEORY = SGP/SGP4

EPOCH          = 2025-12-27T07:19:45.597504
MEAN_MOTION    = 14.86689858
ECCENTRICITY   = .00774462
INCLINATION    = 82.5274
RA_OF_ASC_NODE = 327.8455
ARG_OF_PERICENTER = 151.5661
MEAN_ANOMALY   = 208.9817

EPHEMERIS_TYPE = 0
CLASSIFICATION_TYPE = U
NORAD_CAT_ID   = 16496
ELEMENT_SET_NO = 999
REV_AT_EPOCH   = 13845
BSTAR          = .73718859E-4
MEAN_MOTION_DOT = .719E-5
MEAN_MOTION_DDOT = 0

CCSDS_OMM_VERS = 2.0
CREATION_DATE  = 
ORIGINATOR     = 

OBJECT_NAME    = COSMOS 1743
OBJECT_ID      = 1986-034A
CENTER_NAME    = EARTH
REF_FRAME      = TEME
TIME_SYSTEM    = UTC
MEAN_ELEMENT_THEORY = SGP/SGP4

EPOCH          = 2025-12-27T03:45:00.415584
MEAN_MOTION    = 15.52995022
ECCENTRICITY   = .00050525
INCLINATION    = 82.5344
RA_OF_ASC_NODE = 149.6083
ARG_OF_PERICENTER = 194.2406
MEAN_ANOMALY   = 165.8706

EPHEMERIS_TYPE = 0
CLASSIFICATION_TYPE = U
NORAD_CAT_ID   = 16719
ELEMENT_SET_NO = 999
REV_AT_EPOCH   = 16897
BSTAR          = .61121358E-3
MEAN_MOTION_DOT = .38265E-3
MEAN_MOTION_DDOT = 0

