SL-3 R/B                
1 13403U 82079B   25361.19429852  .00007561  00000+0  31020-3 0  9991
2 13403  81.1470 278.6219 0026823  52.8181 307.5495 15.23759447366651
SL-14 R/B               
1 13553U 82092B   25361.03470579  .00000562  00000+0  60412-4 0  9999
2 13553  82.5671 209.3427 0020322 178.0735 333.5684 14.86569342318131
SL-3 R/B                
1 13819U 83010B   25361.29215355  .00015981  00000+0  34970-3 0  9992
2 13819  81.1041  90.8511 0016480 299.3081  60.6515 15.43860975346761
SL-3 R/B                
1 14208U 83075B   25361.24714893  .00011499  00000+0  32275-3 0  9998
2 14208  97.6115 358.2206 0024185 125.5553 234.7950 15.36430773319022
COSMOS 1536             
1 14699U 84013A   25361.06743314  .00006770  00000+0  28848-3 0  9992
2 14699  82.5449 179.9529 0014677 173.0639 187.0803 15.22683516261565
SL-14 R/B               
1 14820U 84027B   25361.30338915  .00000637  00000+0  70209-4 0  9992
2 14820  82.5423 312.8984 0017094 208.8247 151.2027 14.85890146236889
SL-8 R/B                
1 15483U 85006B   25361.29712737  .00000319  00000+0  11463-3 0  9995
2 15483  74.0459  34.3512 0019332 323.6753 113.2984 14.37730108143625
SL-12 R/B(2)            
1 15772U 85042D   25361.11457147  .00000083  00000+0  58756-4 0  9993
2 15772  71.1068 241.0523 0037224 240.3907 271.9829 14.21956137104076
SL-14 R/B               
1 15945U 85069B   25360.97361140  .00000623  00000+0  67737-4 0  9993
2 15945  82.5272  93.3222 0020274  74.7855 285.5602 14.86340746162037
SL-16 R/B               
1 16182U 85097B   25361.26439965 -.00000196  00000+0 -74148-4 0  9993
2 16182  71.0034 293.0248 0007614 348.4462 119.3933 14.16586886 76973
SL-14 R/B               
1 16496U 86006B   25361.30538886  .00000719  00000+0  73719-4 0  9991
2 16496  82.5274 327.8455 0077446 151.5661 208.9817 14.86689858138452
COSMOS 1743             
1 16719U 86034A   25361.15625481  .00038265  00000+0  61121-3 0  9991
2 16719  82.5344 149.6083 0005052 194.2406 165.8706 15.52995022168975
